[{"OBJECT_NAME":"STARLINK-5797","OBJECT_ID":"2023-028AV","EPOCH":"2026-03-09T18:03:55.345824","MEAN_MOTION":14.98326824,"ECCENTRICITY":0.00032648,"INCLINATION":70.0015,"RA_OF_ASC_NODE":204.3748,"ARG_OF_PERICENTER":274.06,"MEAN_ANOMALY":86.0186,"EPHEMERIS_TYPE":0,"CLASSIFICATION_TYPE":"U","NORAD_CAT_ID":55784,"ELEMENT_SET_NO":999,"REV_AT_EPOCH":16703,"BSTAR":-0.00010478764,"MEAN_MOTION_DOT":-1.343e-5,"MEAN_MOTION_DDOT":0},{"OBJECT_NAME":"CZ-4B DEB","OBJECT_ID":"2006-015F","EPOCH":"2026-03-09T03:45:22.603968","MEAN_MOTION":14.99561687,"ECCENTRICITY":0.00700337,"INCLINATION":97.7654,"RA_OF_ASC_NODE":137.4599,"ARG_OF_PERICENTER":35.4601,"MEAN_ANOMALY":355.3004,"EPHEMERIS_TYPE":0,"CLASSIFICATION_TYPE":"U","NORAD_CAT_ID":29539,"ELEMENT_SET_NO":999,"REV_AT_EPOCH":5458,"BSTAR":0.0013707202,"MEAN_MOTION_DOT":0.00017712,"MEAN_MOTION_DDOT":0}]
